UNKNOWN                 
1 81052U          26029.66212135  .00007253  00000+0  18950-2 0  9992
2 81052  65.7768 268.2805 0563147 284.7623  69.1714 13.83742577606946
UNKNOWN                 
1 81069U          26033.52895325  .00003315  00000+0  43795-2 0  9998
2 81069 100.3848 302.7937 0065049 279.3568  80.0220 13.60933054522976
UNKNOWN                 
1 81111U          26033.29201633  .00022225  00000+0  45692-2 0  9992
2 81111  62.9007 330.8026 3852138 359.2318   0.3487  7.57380040275843
UNKNOWN                 
1 81123U          26033.46067806  .00001099  00000+0  10740-2 0  9998
2 81123  99.9670 122.9677 0002604 261.5270  98.5585 13.81728979613427
UNKNOWN                 
1 81134U          26025.89530910  .00000219  00000+0  77586-3 0  9994
2 81134  90.2499   5.0178 0024237 274.8307  85.0043 12.92996909468310
UNKNOWN                 
1 81161U          26016.31042138  .00000316  00000+0  37583-3 0  9992
2 81161 100.4168 226.5127 0062179 196.2360 163.6795 13.75682856560881
UNKNOWN                 
1 81219U          26032.53677617  .00000611  00000+0  55536-3 0  9990
2 81219  82.9287 327.9860 0022976  71.4212 288.9440 13.81844284614534
UNKNOWN                 
1 81228U          26024.08608990  .00012566  00000+0  37861-2 0  9991
2 81228  70.5202 181.6644 0064599 298.6844  60.7804 14.41440621632196
UNKNOWN                 
1 81254U          26033.63583522  .00003727  00000+0  24265-2 0  9997
2 81254 100.3823 107.8420 0071950 292.0138  67.3390 14.01939137620169
UNKNOWN                 
1 81279U          26031.09910167  .00001458  00000+0  56881-3 0  9990
2 81279  98.1227  91.5561 0206347 240.1869 117.8652 14.20090045469607
UNKNOWN                 
1 81301U          26032.14734417  .00000329  00000+0  39768-3 0  9996
2 81301  66.7579 175.4712 0090906 200.1896 340.7495 13.76743071613294
UNKNOWN                 
1 81311U          26032.38059207  .00000656  00000+0  14294-3 0  9990
2 81311  98.7240  97.0285 0130526 330.2870  93.2056 14.56627306646963
UNKNOWN                 
1 81317U          26032.51248866  .00000139  00000+0  33751-3 0  9997
2 81317  67.1398  64.8350 0213284 358.3090 150.1446 13.38033787595429
UNKNOWN                 
1 81323U          26022.40288314  .00017147  00000+0  21573-2 0  9998
2 81323  65.7505 274.9589 0340684 292.0669  64.4579 14.48797606118940
UNKNOWN                 
1 81329U          26033.19866058  .00004331  00000+0  15396-2 0  9996
2 81329  65.8237  12.4612 0834083   6.6025 354.5220 13.22418662584886
UNKNOWN                 
1 81343U          26032.86257028  .00007600  00000+0  53757-3 0  9992
2 81343  85.8773 172.0227 0010216  77.6776 282.5600 15.04679826462003
UNKNOWN                 
1 81359U          26033.10517915  .00000545  00000+0  57520-3 0  9994
2 81359  66.7990 289.0452 0119778 290.3639  68.4599 13.78928440612567
UNKNOWN                 
1 81366U          26023.57111937  .00002808  00000+0  10155-2 0  9992
2 81366  65.8851 333.0189 0710553  61.2235 305.8290 13.45240902 71584
UNKNOWN                 
1 81371U          26019.54096183  .00004811  00000+0  77196-3 0  9990
2 81371  98.8124 124.0055 0069399 246.4516 112.9387 14.70593876647395
UNKNOWN                 
1 81386U          26029.88772037  .00006812  00000+0  22178-2 0  9995
2 81386  71.0468 252.0345 0086507   7.9389 352.3091 14.36919065631150
UNKNOWN                 
1 81390U          26018.98013495 -.00000075  00000+0 -19210-3 0  9996
2 81390 103.1077 275.1799 0169605  77.6089 284.3892 12.35626022504695
UNKNOWN                 
1 81392U          26027.24031549  .00004787  00000+0  44699-2 0  9997
2 81392 100.4023  25.0693 0041455 279.1497 148.4912 13.82040403608466
UNKNOWN                 
1 81427U          26033.13029739  .00000571  00000+0  35628-3 0  9999
2 81427  98.7467 278.6052 0083265 254.0262 105.1722 14.07052810558992
UNKNOWN                 
1 81438U          26027.38657959  .00004092  00000+0  59462-2 0  9995
2 81438 100.3171 266.0585 0057821 324.2738  35.4534 13.54999020598124
UNKNOWN                 
1 81439U          26032.73896870 -.00000052  00000+0  77968-6 0  9996
2 81439  67.1604  43.1802 0598392 172.0811 189.0192 12.62640188268335
UNKNOWN                 
1 81449U          26033.46231086  .00094871  00000+0  58051-2 0  9999
2 81449  66.7913 200.1492 0018959  65.3978 294.9133 15.09514990641339
UNKNOWN                 
1 81478U          26033.72355229  .00003251  00000+0  11709-2 0  9997
2 81478  98.9517 311.9770 0143900 207.2970 182.4432 14.28807443630364
UNKNOWN                 
1 81488U          26031.89535141  .00000120  00000+0  23471-3 0  9999
2 81488  99.9976 270.2972 0043915 235.2174 139.4797 13.56537177603436
UNKNOWN                 
1 81497U          26022.96297618  .00004963  00000+0  44550-2 0  9990
2 81497 100.3027 286.5661 0027916 272.2037 103.5400 13.84516466222009
UNKNOWN                 
1 81499U          26032.23379235  .00002484  00000+0  68334-3 0  9992
2 81499  74.0500 126.7412 0002954 268.5419  91.5402 14.47481889489722
UNKNOWN                 
1 81535U          26033.18039042  .00000813  00000+0  34898-3 0  9999
2 81535  98.1956 116.1865 0234369   0.0938   0.0241 14.13571924394669
UNKNOWN                 
1 81536U          26032.10577847  .00000532  00000+0  35118-2 0  9994
2 81536 101.9644 258.7735 0020984 207.6414 307.9521 12.55935859558135
UNKNOWN                 
1 81537U          26028.66987827  .00000285  00000+0  19268-3 0  9998
2 81537  71.0404  12.1537 0074537  81.4482 279.5074 14.07128740627063
UNKNOWN                 
1 81599U          26033.37290025  .00000579  00000+0  11330-2 0  9994
2 81599  67.2939 169.2716 0245477  46.3240 345.7731 13.31529639591951
UNKNOWN                 
1 81605U          26025.58387005 -.00000445  00000+0 -13782-2 0  9998
2 81605  56.4355  89.3404 0171240 196.8273 162.6927 12.81556923191825
UNKNOWN                 
1 81614U          26033.42718941  .00005364  00000+0  33445-1 0  9997
2 81614 101.8235  32.6712 0357317  48.5487 314.5692 12.37754555544372
UNKNOWN                 
1 81615U          26032.48340011  .00001639  00000+0  61095-3 0  9997
2 81615  65.8295 303.8679 0768219 112.8671 255.5321 13.34267057589635
UNKNOWN                 
1 81617U          26032.94232624  .00000317  00000+0  21317-2 0  9994
2 81617 101.2623 210.1668 0035256 145.7754 214.5604 12.57576446559545
UNKNOWN                 
1 81624U          26030.71610624  .00006334  00000+0  99249-3 0  9990
2 81624  66.9756  31.5240 0066380 199.2619 160.5993 14.71847598646910
UNKNOWN                 
1 81640U          26031.97249260  .00000322  00000+0  35019-3 0  9997
2 81640  65.8268  29.2337 0977238  57.1537 311.9750 12.57253251516399
UNKNOWN                 
1 81652U          26030.21625163  .00000690  00000+0  86516-3 0  9992
2 81652 102.1479 293.7657 0365005 251.6690 267.6378 13.44466450585166
UNKNOWN                 
1 81667U          26032.15809201  .00002431  00000+0  65613-3 0  9990
2 81667  74.0414 302.1885 0016657 225.0250 134.9560 14.48330219463947
UNKNOWN                 
1 81674U          26033.55111700  .00000756  00000+0  47179-3 0  9998
2 81674  66.8205 233.7926 0026967 197.4233 194.4349 14.10059780621026
UNKNOWN                 
1 81683U          26032.54636775  .00002840  00000+0  61601-3 0  9992
2 81683  81.2141 241.7779 0023571 140.8093 219.4817 14.57766289643263
UNKNOWN                 
1 81693U          26033.60328402  .00000950  00000+0  71303-2 0  9995
2 81693 101.0975  94.3495 0365424 344.6978  14.3266 12.25967259974124
UNKNOWN                 
1 81745U          26032.40892035  .00001783  00000+0  57427-3 0  9995
2 81745  70.9986 276.5893 0004393 171.4628 188.6583 14.40642728637041
UNKNOWN                 
1 81775U          26032.83172336  .00006939  00000+0  21196-2 0  9991
2 81775  82.9215 181.9205 0015792  94.5729 265.7268 14.41707923632637
UNKNOWN                 
1 81779U          26031.46228066 -.00007687  00000+0 -44121+0 0  9998
2 81779  54.5026 135.0102 1528797  98.0700 279.5672  9.34169737484969
UNKNOWN                 
1 81792U          26032.15457541  .00001669  00000+0  60629-3 0  9999
2 81792  65.8312 342.5504 0895515 260.1964  89.6941 13.11209694 86645
UNKNOWN                 
1 81812U          26033.71153492  .00004223  00000+0  29925-1 0  9994
2 81812 103.8141 317.0577 0236497 147.9476 213.6208 12.37769355546992
UNKNOWN                 
1 81816U          26032.76896251  .00001641  00000+0  12407-2 0  9998
2 81816  66.2379 168.8862 0175592 217.7620 141.1027 13.89610688616438
UNKNOWN                 
1 81819U          26031.21109906  .00001011  00000+0  71468-2 0  9997
2 81819 102.1764 134.0718 0030221  23.2133 337.0292 12.47772218554186
UNKNOWN                 
1 81824U          26033.52064697  .00005197  00000+0  17930-2 0  9999
2 81824  65.8420 195.8546 0044741 306.3480  53.3488 14.36074366632026
UNKNOWN                 
1 81833U          26028.67619235  .00000370  00000+0  13180-2 0  9994
2 81833  90.2433   3.9307 0025148 261.8702  97.9564 12.93746880458582
UNKNOWN                 
1 81838U          26026.69871619  .00010833  00000+0  23584-2 0  9999
2 81838  67.7595 148.7226 0041952 323.4616 103.9601 14.57662167639884
UNKNOWN                 
1 81844U          26033.29203022  .00004331  00000+0  15315-2 0  9996
2 81844  82.9065 240.2740 0061771 355.1846   4.8740 14.33399333630272
UNKNOWN                 
1 81845U          26033.47683169  .00003613  00000+0  39615-3 0  9993
2 81845  97.6753 223.6351 0088146 134.2111 257.1362 14.85502729657206
UNKNOWN                 
1 81864U          26033.13071996  .00002440  00000+0  94023-3 0  9997
2 81864  65.6733 306.7363 0766542 350.9348   7.8479 13.32666652557685
UNKNOWN                 
1 81865U          26033.33368679  .00001332  00000+0  10875-2 0  9998
2 81865  82.8073 348.8467 0060214 217.4588 295.1106 13.88191671615704
